NORAD_CAT_ID,OBJECT_NAME,OBJECT_TYPE,EPOCH,MEAN_MOTION,ECCENTRICITY,INCLINATION,RA_OF_ASC_NODE,ARG_OF_PERICENTER,MEAN_ANOMALY,BSTAR,MEAN_MOTION_DOT,MEAN_MOTION_DDOT,TLE_LINE0,TLE_LINE1,TLE_LINE2,SEMIMAJOR_AXIS,PERIOD,APOGEE,PERIGEE,DECAYED
52547.0,STARLINK-3869,PAYLOAD,2024-01-10 04:47:37,15.08824843,0.0001261,53.2192,78.2832,101.4897,258.6237,0.00016315,2.309e-05,0.0,0 STARLINK-3869,1 52547U 22051Q   24010.19974388  .00002309  00000-0  16315-3 0  9992,2 52547  53.2192  78.2832 0001261 101.4897 258.6237 15.08824843 92251,6917.927,95.439,540.664,538.919,0.0
52547.0,STARLINK-3869,PAYLOAD,2024-01-10 11:09:10,15.08829382,0.0001853,53.2183,77.096,105.007,255.1127,0.00022044,3.221e-05,0.0,0 STARLINK-3869,1 52547U 22051Q   24010.46470111  .00003221  00000-0  22044-3 0  9997,2 52547  53.2183  77.0960 0001853 105.0070 255.1127 15.08829382 92220,6917.913,95.438,541.06,538.496,0.0
52547.0,STARLINK-3869,PAYLOAD,2024-01-10 14:19:55,15.08836787,0.0001562,53.216,76.4944,107.5743,252.5419,0.00022575,3.306e-05,0.0,0 STARLINK-3869,1 52547U 22051Q   24010.59717565  .00003306  00000-0  22575-3 0  9991,2 52547  53.2160  76.4944 0001562 107.5743 252.5419 15.08836787 92313,6917.89,95.438,540.836,538.675,0.0
52547.0,STARLINK-3869,PAYLOAD,2024-01-11 09:24:33,15.08857364,0.0001878,53.2177,72.9236,91.7312,268.3895,-3.5067e-05,-8.47e-06,0.0,0 STARLINK-3869,1 52547U 22051Q   24011.39205092 -.00000847  00000-0 -35067-4 0  9997,2 52547  53.2177  72.9236 0001878  91.7312 268.3895 15.08857364 92432,6917.827,95.436,540.991,538.393,0.0
52547.0,STARLINK-3869,PAYLOAD,2024-01-11 14:10:42,15.088593,0.0001917,53.2179,72.0309,94.8059,265.3152,-7.3466e-06,-4.05e-06,0.0,0 STARLINK-3869,1 52547U 22051Q   24011.59076651 -.00000405  00000-0 -73466-5 0  9992,2 52547  53.2179  72.0309 0001917  94.8059 265.3152 15.08859300 92392,6917.821,95.436,541.013,538.36,0.0
52547.0,STARLINK-3869,PAYLOAD,2024-01-12 04:29:11,15.08833437,0.0001976,53.2158,69.3567,99.1893,260.9322,-8.6834e-06,-4.26e-06,0.0,0 STARLINK-3869,1 52547U 22051Q   24012.18694092 -.00000426  00000-0 -86834-5 0  9999,2 52547  53.2158  69.3567 0001976  99.1893 260.9322 15.08833437 92554,6917.9,95.438,541.132,538.398,0.0
52547.0,STARLINK-3869,PAYLOAD,2024-01-12 09:15:20,15.08834663,0.0001141,53.2172,68.4566,96.5087,263.6035,5.6365e-05,6.09e-06,0.0,0 STARLINK-3869,1 52547U 22051Q   24012.38565752  .00000609  00000-0  56365-4 0  9997,2 52547  53.2172  68.4566 0001141  96.5087 263.6035 15.08834663 92518,6917.897,95.438,540.551,538.972,0.0
52547.0,STARLINK-3869,PAYLOAD,2024-01-13 10:41:30,15.08851996,0.0001872,53.217,63.7072,101.7888,258.3314,-7.9631e-05,-1.556e-05,0.0,0 STARLINK-3869,1 52547U 22051Q   24013.44549265 -.00001556  00000-0 -79631-4 0  9991,2 52547  53.2170  63.7072 0001872 101.7888 258.3314 15.08851996 92749,6917.844,95.437,541.004,538.414,0.0
52547.0,STARLINK-3869,PAYLOAD,2024-01-13 12:16:53,15.08848034,0.0001706,53.2167,63.4075,97.2716,262.847,1.4172e-05,-6.2e-07,0.0,0 STARLINK-3869,1 52547U 22051Q   24013.51173271 -.00000062  00000-0  14172-4 0  9998,2 52547  53.2167  63.4075 0001706  97.2716 262.8470 15.08848034 92685,6917.856,95.437,540.901,538.541,0.0
52547.0,STARLINK-3869,PAYLOAD,2024-01-13 23:24:36,15.08835263,0.0001894,53.2159,61.3298,93.1649,266.956,0.00010264,1.346e-05,0.0,0 STARLINK-3869,1 52547U 22051Q   24013.97541898  .00001346  00000-0  10264-3 0  9994,2 52547  53.2159  61.3298 0001894  93.1649 266.9560 15.08835263 92829,6917.895,95.438,541.07,538.45,0.0
52547.0,STARLINK-3869,PAYLOAD,2024-01-14 12:07:40,15.08847921,0.0001685,53.2174,58.9489,105.7022,254.4156,0.00014633,2.042e-05,0.0,0 STARLINK-3869,1 52547U 22051Q   24014.50532898  .00002042  00000-0  14633-3 0  9992,2 52547  53.2174  58.9489 0001685 105.7022 254.4156 15.08847921 92909,6917.856,95.437,540.887,538.556,0.0
52547.0,STARLINK-3869,PAYLOAD,2024-01-14 23:15:23,15.08839271,0.000193,53.2159,56.8702,79.8993,280.2217,2.4724e-05,1.05e-06,0.0,0 STARLINK-3869,1 52547U 22051Q   24014.96902144  .00000105  00000-0  24724-4 0  9998,2 52547  53.2159  56.8702 0001930  79.8993 280.2217 15.08839271 92979,6917.883,95.438,541.083,538.412,0.0
52547.0,STARLINK-3869,PAYLOAD,2024-01-15 11:58:27,15.08849217,0.0001952,53.2178,54.4853,118.9262,241.1926,6.2313e-05,7.04e-06,0.0,0 STARLINK-3869,1 52547U 22051Q   24015.49893027  .00000704  00000-0  62313-4 0  9997,2 52547  53.2178  54.4853 0001952 118.9262 241.1926 15.08849217 93053,6917.852,95.437,541.068,538.367,0.0
52547.0,STARLINK-3869,PAYLOAD,2024-01-16 02:16:56,15.08834299,0.0001489,53.2184,51.8137,107.9291,252.1864,-4.276e-05,-9.68e-06,0.0,0 STARLINK-3869,1 52547U 22051Q   24016.09510370 -.00000968  00000-0 -42760-4 0  9999,2 52547  53.2184  51.8137 0001489 107.9291 252.1864 15.08834299 93148,6917.898,95.438,540.793,538.733,0.0
52547.0,STARLINK-3869,PAYLOAD,2024-01-16 11:49:15,15.0884421,0.0001811,53.2174,50.0276,109.2948,250.824,-4.3375e-05,-9.78e-06,0.0,0 STARLINK-3869,1 52547U 22051Q   24016.49253805 -.00000978  00000-0 -43375-4 0  9994,2 52547  53.2174  50.0276 0001811 109.2948 250.8240 15.08844210 93209,6917.868,95.437,540.985,538.48,0.0
52547.0,STARLINK-3869,PAYLOAD,2024-01-17 05:18:28,15.08853685,0.0001785,53.2171,46.7589,95.8028,264.3168,0.00019344,2.793e-05,0.0,0 STARLINK-3869,1 52547U 22051Q   24017.22116746  .00002793  00000-0  19344-3 0  9991,2 52547  53.2171  46.7589 0001785  95.8028 264.3168 15.08853685 93311,6917.839,95.437,540.938,538.469,0.0
52547.0,STARLINK-3869,PAYLOAD,2024-01-18 01:58:29,15.08846221,0.0001618,53.2166,42.893,67.2556,292.8607,0.00019143,2.76e-05,0.0,0 STARLINK-3869,1 52547U 22051Q   24018.08229156  .00002760  00000-0  19143-3 0  9997,2 52547  53.2166  42.8930 0001618  67.2556 292.8607 15.08846221 93442,6917.861,95.437,540.846,538.607,0.0
52547.0,STARLINK-3869,PAYLOAD,2024-01-18 11:30:47,15.08855292,0.0001874,53.2162,41.1063,102.2886,257.8316,0.00016418,2.327e-05,0.0,0 STARLINK-3869,1 52547U 22051Q   24018.47972176  .00002327  00000-0  16418-3 0  9998,2 52547  53.2162  41.1063 0001874 102.2886 257.8316 15.08855292 93500,6917.834,95.437,540.995,538.402,0.0
52547.0,STARLINK-3869,PAYLOAD,2024-01-19 01:49:15,15.0885258,0.0001732,53.2174,38.4368,60.4486,299.6679,-3.0246e-05,-7.7e-06,0.0,0 STARLINK-3869,1 52547U 22051Q   24019.07587898 -.00000770  00000-0 -30246-4 0  9996,2 52547  53.2174  38.4368 0001732  60.4486 299.6679 15.08852580 93596,6917.842,95.437,540.905,538.509,0.0
52547.0,STARLINK-3869,PAYLOAD,2024-01-19 08:10:47,15.08859027,0.0001755,53.2177,37.2453,91.9966,268.1227,7.9796e-05,9.83e-06,0.0,0 STARLINK-3869,1 52547U 22051Q   24019.34083303  .00000983  00000-0  79796-4 0  9995,2 52547  53.2177  37.2453 0001755  91.9966 268.1227 15.08859027 93636,6917.822,95.436,540.901,538.473,0.0
52547.0,STARLINK-3869,PAYLOAD,2024-01-20 01:40:00,15.08873671,0.0001622,53.2175,33.9713,92.7296,267.3882,0.00043022,6.572e-05,0.0,0 STARLINK-3869,1 52547U 22051Q   24020.06945578  .00006572  00000-0  43022-3 0  9999,2 52547  53.2175  33.9713 0001622  92.7296 267.3882 15.08873671 93745,6917.777,95.435,540.765,538.52,0.0
52547.0,STARLINK-3869,PAYLOAD,2024-01-20 06:26:08,15.08901011,0.0001882,53.2171,33.0816,103.7283,256.3919,0.00072947,0.0001136,0.0,0 STARLINK-3869,1 52547U 22051Q   24020.26815549  .00011360  00000-0  72947-3 0  9994,2 52547  53.2171  33.0816 0001882 103.7283 256.3919 15.08901011 93775,6917.694,95.434,540.861,538.257,0.0
52547.0,STARLINK-3869,PAYLOAD,2024-01-20 14:23:02,15.08914229,0.0002158,53.2172,31.5899,119.4695,240.6513,0.00073312,0.00011422,0.0,0 STARLINK-3869,1 52547U 22051Q   24020.59933492  .00011422  00000-0  73312-3 0  9994,2 52547  53.2172  31.5899 0002158 119.4695 240.6513 15.08914229 93757,6917.654,95.433,541.011,538.026,0.0
52547.0,STARLINK-3869,PAYLOAD,2024-01-20 23:55:18,15.08937009,0.0002007,53.2173,29.8066,113.1511,246.9693,0.00091873,0.00014403,0.0,0 STARLINK-3869,1 52547U 22051Q   24020.99674352  .00014403  00000-0  91873-3 0  9999,2 52547  53.2173  29.8066 0002007 113.1511 246.9693 15.08937009 93888,6917.584,95.431,540.837,538.061,0.0
52547.0,STARLINK-3869,PAYLOAD,2024-01-21 06:16:49,15.08951066,0.0001853,53.2176,28.6175,94.5941,265.5263,0.001107,0.00017427,0.0,0 STARLINK-3869,1 52547U 22051Q   24021.26168135  .00017427  00000-0  11070-2 0  9996,2 52547  53.2176  28.6175 0001853  94.5941 265.5263 15.08951066 93852,6917.541,95.431,540.688,538.124,0.0
52547.0,STARLINK-3869,PAYLOAD,2024-01-21 07:52:11,15.0895313,0.0001872,53.2177,28.32,98.3708,261.7497,0.0010874,0.00017114,0.0,0 STARLINK-3869,1 52547U 22051Q   24021.32791558  .00017114  00000-0  10874-2 0  9998,2 52547  53.2177  28.3200 0001872  98.3708 261.7497 15.08953130 93933,6917.535,95.43,540.695,538.105,0.0
52547.0,STARLINK-3869,PAYLOAD,2024-01-21 23:45:56,15.09002141,0.0001784,53.2178,25.3463,100.2762,259.8431,0.000955,0.00015011,0.0,0 STARLINK-3869,1 52547U 22051Q   24021.99023518  .00015011  00000-0  95500-3 0  9999,2 52547  53.2178  25.3463 0001784 100.2762 259.8431 15.09002141 94033,6917.385,95.427,540.484,538.016,0.0
52547.0,STARLINK-3869,PAYLOAD,2024-01-22 06:07:25,15.09031712,0.0001936,53.2174,24.1574,101.6571,258.4638,0.0013089,0.00020714,0.0,0 STARLINK-3869,1 52547U 22051Q   24022.25515983  .00020714  00000-0  13089-2 0  9998,2 52547  53.2174  24.1574 0001936 101.6571 258.4638 15.09031712 94008,6917.294,95.425,540.499,537.82,0.0
52547.0,STARLINK-3869,PAYLOAD,2024-01-22 09:18:10,15.09061769,0.0002044,53.2167,23.5624,105.8719,254.2498,0.0017012,0.00027056,0.0,0 STARLINK-3869,1 52547U 22051Q   24022.38761657  .00027056  00000-0  17012-2 0  9999,2 52547  53.2167  23.5624 0002044 105.8719 254.2498 15.09061769 94092,6917.203,95.424,540.481,537.654,0.0
52547.0,STARLINK-3869,PAYLOAD,2024-01-23 05:57:58,15.0912035,0.0002129,53.2168,19.6959,106.4153,253.7073,0.002138,0.00034167,0.0,0 STARLINK-3869,1 52547U 22051Q   24023.24859223  .00034167  00000-0  21380-2 0  9996,2 52547  53.2168  19.6959 0002129 106.4153 253.7073 15.09120350 94223,6917.024,95.42,540.361,537.416,0.0
